NORAD_CAT_ID,OBJECT_NAME,OBJECT_TYPE,EPOCH,MEAN_MOTION,ECCENTRICITY,INCLINATION,RA_OF_ASC_NODE,ARG_OF_PERICENTER,MEAN_ANOMALY,BSTAR,MEAN_MOTION_DOT,MEAN_MOTION_DDOT,TLE_LINE0,TLE_LINE1,TLE_LINE2,SEMIMAJOR_AXIS,PERIOD,APOGEE,PERIGEE,DECAYED
55293.0,STARLINK-5287,PAYLOAD,2024-03-22 20:21:56,14.98287962,0.000329,70.0014,31.8551,253.9506,106.129,-0.00036092,-4.392e-05,0.0,0 STARLINK-5287,1 55293U 23010AA  24082.84856584 -.00004392  00000-0 -36092-3 0  9997,2 55293  70.0014  31.8551 0003290 253.9506 106.1290 14.98287962 65595,6950.323,96.11,574.475,569.901,0.0
55293.0,STARLINK-5287,PAYLOAD,2024-03-22 21:58:00,14.98341344,0.0002477,70.0017,31.6872,216.7688,143.3302,0.00022167,2.554e-05,0.0,0 STARLINK-5287,1 55293U 23010AA  24082.91527877  .00002554  00000-0  22167-3 0  9999,2 55293  70.0017  31.6872 0002477 216.7688 143.3302 14.98341344 65903,6950.158,96.106,573.744,570.301,0.0
55293.0,STARLINK-5287,PAYLOAD,2024-03-23 04:22:31,14.98345676,0.0002618,70.0018,31.0139,261.7442,98.342,0.00027536,3.195e-05,0.0,0 STARLINK-5287,1 55293U 23010AA  24083.18231471  .00003195  00000-0  27536-3 0  9998,2 55293  70.0018  31.0139 0002618 261.7442  98.3420 14.98345676 65642,6950.144,96.106,573.829,570.19,0.0
55293.0,STARLINK-5287,PAYLOAD,2024-03-23 05:58:39,14.98350647,0.0002912,70.0014,30.8453,266.4964,93.5862,0.00031223,3.636e-05,0.0,0 STARLINK-5287,1 55293U 23010AA  24083.24906761  .00003636  00000-0  31223-3 0  9994,2 55293  70.0014  30.8453 0002912 266.4964  93.5862 14.98350647 65654,6950.129,96.106,574.018,569.97,0.0
55293.0,STARLINK-5287,PAYLOAD,2024-03-23 22:00:01,14.98331837,0.0002785,70.0032,29.1663,255.5756,104.5094,-6.7357e-05,-8.97e-06,0.0,0 STARLINK-5287,1 55293U 23010AA  24083.91668702 -.00000897  00000-0 -67357-4 0  9994,2 55293  70.0032  29.1663 0002785 255.5756 104.5094 14.98331837 66059,6950.187,96.107,573.988,570.117,0.0
55293.0,STARLINK-5287,PAYLOAD,2024-03-24 04:24:33,14.98339991,0.0002567,70.0027,28.4916,247.725,112.3637,3.1712e-05,2.86e-06,0.0,0 STARLINK-5287,1 55293U 23010AA  24084.18371975  .00000286  00000-0  31712-4 0  9993,2 55293  70.0027  28.4916 0002567 247.7250 112.3637 14.98339991 65795,6950.162,96.106,573.811,570.243,0.0
55293.0,STARLINK-5287,PAYLOAD,2024-03-24 06:00:41,14.98339738,0.0002566,70.0029,28.3232,259.4314,100.6556,0.00010467,1.156e-05,0.0,0 STARLINK-5287,1 55293U 23010AA  24084.25047787  .00001156  00000-0  10467-3 0  9992,2 55293  70.0029  28.3232 0002566 259.4314 100.6556 14.98339738 66102,6950.163,96.106,573.811,570.244,0.0
55293.0,STARLINK-5287,PAYLOAD,2024-03-24 22:02:04,14.9832818,0.0003284,70.0016,26.6391,282.7392,77.34,-0.00040429,-4.913e-05,0.0,0 STARLINK-5287,1 55293U 23010AA  24084.91810289 -.00004913  00000-0 -40429-3 0  9997,2 55293  70.0016  26.6391 0003284 282.7392  77.3400 14.98328180 65902,6950.199,96.107,574.346,569.781,0.0
55293.0,STARLINK-5287,PAYLOAD,2024-03-25 06:02:44,14.98331253,0.0002606,70.0019,25.7983,270.589,89.497,-0.0003378,-4.121e-05,0.0,0 STARLINK-5287,1 55293U 23010AA  24085.25189819 -.00004121  00000-0 -33780-3 0  9996,2 55293  70.0019  25.7983 0002606 270.5890  89.4970 14.98331253 65953,6950.189,96.107,573.865,570.243,0.0
55293.0,STARLINK-5287,PAYLOAD,2024-03-25 22:04:04,14.98323284,0.0002767,70.0019,24.1143,265.859,94.2252,-0.00017666,-2.2e-05,0.0,0 STARLINK-5287,1 55293U 23010AA  24085.91950163 -.00002200  00000-0 -17666-3 0  9998,2 55293  70.0019  24.1143 0002767 265.8590  94.2252 14.98323284 66353,6950.214,96.107,574.002,570.156,0.0
55293.0,STARLINK-5287,PAYLOAD,2024-03-26 12:29:16,14.98334066,0.0002542,70.0026,22.6003,265.4004,94.6864,-0.00010775,-1.378e-05,0.0,0 STARLINK-5287,1 55293U 23010AA  24086.52033388 -.00001378  00000-0 -10775-3 0  9996,2 55293  70.0026  22.6003 0002542 265.4004  94.6864 14.98334066 66146,6950.18,96.107,573.812,570.279,0.0
55293.0,STARLINK-5287,PAYLOAD,2024-03-26 18:54:26,14.98705501,0.0003763,70.0016,21.9234,36.0556,324.0856,-0.017735,-0.00207591,0.0,0 STARLINK-5287,1 55293U 23010AA  24086.78781162 -.00207591  00000-0 -17735-1 0  9990,2 55293  70.0016  21.9234 0003763  36.0556 324.0856 14.98705501 66184,6949.032,96.083,573.512,568.282,0.0
55293.0,STARLINK-5287,PAYLOAD,2024-03-27 04:30:36,14.98332309,0.0002611,70.0018,20.9145,267.6264,92.4597,0.00033933,3.958e-05,0.0,0 STARLINK-5287,1 55293U 23010AA  24087.18792223  .00003958  00000-0  33933-3 0  9994,2 55293  70.0018  20.9145 0002611 267.6264  92.4597 14.98332309 66242,6950.186,96.107,573.865,570.236,0.0
55293.0,STARLINK-5287,PAYLOAD,2024-03-27 12:31:17,14.98328687,0.000311,70.002,20.0737,272.417,87.6632,0.00010824,1.199e-05,0.0,0 STARLINK-5287,1 55293U 23010AA  24087.52172866  .00001199  00000-0  10824-3 0  9996,2 55293  70.0020  20.0737 0003110 272.4170  87.6632 14.98328687 66293,6950.197,96.107,574.223,569.9,0.0
55293.0,STARLINK-5287,PAYLOAD,2024-03-27 20:31:58,14.98322302,0.0002523,70.0029,19.2341,258.2425,101.8451,4.8573e-05,4.87e-06,0.0,0 STARLINK-5287,1 55293U 23010AA  24087.85553598  .00000487  00000-0  48573-4 0  9999,2 55293  70.0029  19.2341 0002523 258.2425 101.8451 14.98322302 66347,6950.217,96.107,573.835,570.328,0.0
55293.0,STARLINK-5287,PAYLOAD,2024-03-27 22:08:06,14.98323929,0.0002605,70.0022,19.0656,261.0891,98.9974,1.7803e-05,1.19e-06,0.0,0 STARLINK-5287,1 55293U 23010AA  24087.92229625  .00000119  00000-0  17803-4 0  9992,2 55293  70.0022  19.0656 0002605 261.0891  98.9974 14.98323929 66653,6950.212,96.107,573.887,570.266,0.0
55293.0,STARLINK-5287,PAYLOAD,2024-03-28 12:33:18,14.98334983,0.0002869,70.0009,17.5475,268.0907,91.9923,3.6701e-06,-4.9e-07,0.0,0 STARLINK-5287,1 55293U 23010AA  24088.52312839 -.00000049  00000-0  36701-5 0  9991,2 55293  70.0009  17.5475 0002869 268.0907  91.9923 14.98334983 66443,6950.177,96.107,574.036,570.048,0.0
55293.0,STARLINK-5287,PAYLOAD,2024-03-28 22:10:06,14.98335683,0.0002761,70.0014,16.5383,271.2794,88.8049,-4.9659e-05,-6.85e-06,0.0,0 STARLINK-5287,1 55293U 23010AA  24088.92368835 -.00000685  00000-0 -49659-4 0  9994,2 55293  70.0014  16.5383 0002761 271.2794  88.8049 14.98335683 66809,6950.175,96.107,573.959,570.121,0.0
55293.0,STARLINK-5287,PAYLOAD,2024-03-29 04:34:38,14.98339794,0.0002739,70.0013,15.8651,269.7226,90.3619,-1.9169e-05,-3.22e-06,0.0,0 STARLINK-5287,1 55293U 23010AA  24089.19072344 -.00000322  00000-0 -19169-4 0  9992,2 55293  70.0013  15.8651 0002739 269.7226  90.3619 14.98339794 66847,6950.163,96.106,573.931,570.124,0.0
55293.0,STARLINK-5287,PAYLOAD,2024-03-29 22:12:07,14.98326568,0.000268,70.0016,14.0135,271.6172,88.468,7.3239e-05,7.81e-06,0.0,0 STARLINK-5287,1 55293U 23010AA  24089.92508678  .00000781  00000-0  73239-4 0  9992,2 55293  70.0016  14.0135 0002680 271.6172  88.4680 14.98326568 66958,6950.204,96.107,573.931,570.206,0.0
55293.0,STARLINK-5287,PAYLOAD,2024-03-30 04:36:39,14.98325584,0.0002786,70.0014,13.3406,270.7507,89.3332,6.1447e-05,6.4e-06,0.0,0 STARLINK-5287,1 55293U 23010AA  24090.19212776  .00000640  00000-0  61447-4 0  9996,2 55293  70.0014  13.3406 0002786 270.7507  89.3332 14.98325584 66690,6950.207,96.107,574.008,570.135,0.0
55293.0,STARLINK-5287,PAYLOAD,2024-03-30 12:37:20,14.98321748,0.0002515,70.0023,12.497,270.5344,89.5527,8.4282e-05,9.13e-06,0.0,0 STARLINK-5287,1 55293U 23010AA  24090.52593002  .00000913  00000-0  84282-4 0  9992,2 55293  70.0023  12.4970 0002515 270.5344  89.5527 14.98321748 67049,6950.218,96.108,573.831,570.335,0.0
55293.0,STARLINK-5287,PAYLOAD,2024-03-30 22:14:08,14.98327633,0.0002675,70.0017,11.4874,270.6819,89.4034,-3.6089e-05,-5.23e-06,0.0,0 STARLINK-5287,1 55293U 23010AA  24090.92648895 -.00000523  00000-0 -36089-4 0  9998,2 55293  70.0017  11.4874 0002675 270.6819  89.4034 14.98327633 67107,6950.2,96.107,573.924,570.206,0.0
55293.0,STARLINK-5287,PAYLOAD,2024-03-31 04:38:40,14.98331683,0.0002724,70.0015,10.8155,267.0611,93.0236,-5.0482e-05,-6.95e-06,0.0,0 STARLINK-5287,1 55293U 23010AA  24091.19352656 -.00000695  00000-0 -50482-4 0  9998,2 55293  70.0015  10.8155 0002724 267.0611  93.0236 14.98331683 66840,6950.188,96.107,573.946,570.159,0.0
55293.0,STARLINK-5287,PAYLOAD,2024-03-31 22:16:09,14.98332538,0.000279,70.0015,8.964,271.8111,88.2728,4.9146e-05,4.94e-06,0.0,0 STARLINK-5287,1 55293U 23010AA  24091.92788240  .00000494  00000-0  49146-4 0  9991,2 55293  70.0015   8.9640 0002790 271.8111  88.2728 14.98332538 67256,6950.185,96.107,573.989,570.111,0.0
55293.0,STARLINK-5287,PAYLOAD,2024-04-01 03:04:32,14.98338123,0.0002815,70.0014,8.459,272.9883,87.0954,4.5307e-05,4.48e-06,0.0,0 STARLINK-5287,1 55293U 23010AA  24092.12815848  .00000448  00000-0  45307-4 0  9993,2 55293  70.0014   8.4590 0002815 272.9883  87.0954 14.98338123 66983,6950.168,96.106,573.989,570.076,0.0
55293.0,STARLINK-5287,PAYLOAD,2024-04-01 11:05:13,14.98334552,0.0002891,70.001,7.6164,274.7678,85.3151,-5.0876e-06,-1.54e-06,0.0,0 STARLINK-5287,1 55293U 23010AA  24092.46196082 -.00000154  00000-0 -50876-5 0  9996,2 55293  70.0010   7.6164 0002891 274.7678  85.3151 14.98334552 67335,6950.179,96.107,574.053,570.035,0.0
55293.0,STARLINK-5287,PAYLOAD,2024-04-01 19:05:54,14.98330325,0.0002229,70.0024,6.7762,274.167,85.9234,-1.8704e-05,-3.16e-06,0.0,0 STARLINK-5287,1 55293U 23010AA  24092.79576586 -.00000316  00000-0 -18704-4 0  9996,2 55293  70.0024   6.7762 0002229 274.1670  85.9234 14.98330325 67089,6950.192,96.107,573.606,570.508,0.0
55293.0,STARLINK-5287,PAYLOAD,2024-04-02 11:07:14,14.98343771,0.0002596,70.0018,5.0934,271.6616,88.4246,-0.00032523,-3.973e-05,0.0,0 STARLINK-5287,1 55293U 23010AA  24093.46336365 -.00003973  00000-0 -32523-3 0  9996,2 55293  70.0018   5.0934 0002596 271.6616  88.4246 14.98343771 67488,6950.15,96.106,573.82,570.211,0.0
55293.0,STARLINK-5287,PAYLOAD,2024-04-02 19:07:55,14.98331256,0.0002989,70.0001,4.2514,266.8636,93.2182,-0.00010676,-1.367e-05,0.0,0 STARLINK-5287,1 55293U 23010AA  24093.79716669 -.00001367  00000-0 -10676-3 0  9991,2 55293  70.0001   4.2514 0002989 266.8636  93.2182 14.98331256 67230,6950.189,96.107,574.131,569.977,0.0
